[{"OBJECT_NAME":"GAOFEN-3","OBJECT_ID":"2016-049A","EPOCH":"2026-03-03T20:06:20.484576","MEAN_MOTION":14.42214068,"ECCENTRICITY":0.0001619,"INCLINATION":98.4047,"RA_OF_ASC_NODE":72.1974,"ARG_OF_PERICENTER":95.3442,"MEAN_ANOMALY":264.7932,"EPHEMERIS_TYPE":0,"CLASSIFICATION_TYPE":"U","NORAD_CAT_ID":41727,"ELEMENT_SET_NO":999,"REV_AT_EPOCH":50346,"BSTAR":9.4177e-6,"MEAN_MOTION_DOT":-1.2e-7,"MEAN_MOTION_DDOT":0},{"OBJECT_NAME":"PRATHAM","OBJECT_ID":"2016-059A","EPOCH":"2026-03-03T12:44:02.151744","MEAN_MOTION":14.67025138,"ECCENTRICITY":0.0030949,"INCLINATION":97.8314,"RA_OF_ASC_NODE":64.052,"ARG_OF_PERICENTER":192.6488,"MEAN_ANOMALY":167.3944,"EPHEMERIS_TYPE":0,"CLASSIFICATION_TYPE":"U","NORAD_CAT_ID":41783,"ELEMENT_SET_NO":999,"REV_AT_EPOCH":50402,"BSTAR":0.00019724,"MEAN_MOTION_DOT":1.067e-5,"MEAN_MOTION_DDOT":0},{"OBJECT_NAME":"ALSAT-1N","OBJECT_ID":"2016-059G","EPOCH":"2026-03-03T19:48:51.770880","MEAN_MOTION":14.69099018,"ECCENTRICITY":0.0026336,"INCLINATION":97.803,"RA_OF_ASC_NODE":70.8753,"ARG_OF_PERICENTER":161.7752,"MEAN_ANOMALY":198.4404,"EPHEMERIS_TYPE":0,"CLASSIFICATION_TYPE":"U","NORAD_CAT_ID":41789,"ELEMENT_SET_NO":999,"REV_AT_EPOCH":50453,"BSTAR":0.00020412,"MEAN_MOTION_DOT":1.158e-5,"MEAN_MOTION_DDOT":0},{"OBJECT_NAME":"CAS-2T & KS-1Q","OBJECT_ID":"2016-066G","EPOCH":"2026-03-03T17:59:44.299392","MEAN_MOTION":14.44447987,"ECCENTRICITY":0.0343777,"INCLINATION":98.3898,"RA_OF_ASC_NODE":139.6652,"ARG_OF_PERICENTER":89.444,"MEAN_ANOMALY":274.6126,"EPHEMERIS_TYPE":0,"CLASSIFICATION_TYPE":"U","NORAD_CAT_ID":41847,"ELEMENT_SET_NO":999,"REV_AT_EPOCH":48957,"BSTAR":0.00027184,"MEAN_MOTION_DOT":1.89e-5,"MEAN_MOTION_DDOT":0},{"OBJECT_NAME":"YUNHAI-1 01","OBJECT_ID":"2016-068A","EPOCH":"2026-03-03T20:23:44.618208","MEAN_MOTION":14.32662381,"ECCENTRICITY":0.0005223,"INCLINATION":98.5885,"RA_OF_ASC_NODE":74.8134,"ARG_OF_PERICENTER":358.4691,"MEAN_ANOMALY":1.6476,"EPHEMERIS_TYPE":0,"CLASSIFICATION_TYPE":"U","NORAD_CAT_ID":41857,"ELEMENT_SET_NO":999,"REV_AT_EPOCH":48674,"BSTAR":0.00015504,"MEAN_MOTION_DOT":3.77e-6,"MEAN_MOTION_DDOT":0},{"OBJECT_NAME":"RESOURCESAT-2A","OBJECT_ID":"2016-074A","EPOCH":"2026-03-03T20:22:29.857152","MEAN_MOTION":14.21596911,"ECCENTRICITY":0.0002764,"INCLINATION":98.762,"RA_OF_ASC_NODE":137.1823,"ARG_OF_PERICENTER":48.2637,"MEAN_ANOMALY":311.8776,"EPHEMERIS_TYPE":0,"CLASSIFICATION_TYPE":"U","NORAD_CAT_ID":41877,"ELEMENT_SET_NO":999,"REV_AT_EPOCH":47933,"BSTAR":2.4513e-6,"MEAN_MOTION_DOT":-3.9e-7,"MEAN_MOTION_DDOT":0},{"OBJECT_NAME":"TANSAT","OBJECT_ID":"2016-081A","EPOCH":"2026-03-03T21:44:28.656672","MEAN_MOTION":14.59862936,"ECCENTRICITY":0.0019316,"INCLINATION":98.5347,"RA_OF_ASC_NODE":60.0671,"ARG_OF_PERICENTER":275.3088,"MEAN_ANOMALY":84.5907,"EPHEMERIS_TYPE":0,"CLASSIFICATION_TYPE":"U","NORAD_CAT_ID":41898,"ELEMENT_SET_NO":999,"REV_AT_EPOCH":48926,"BSTAR":8.7053e-5,"MEAN_MOTION_DOT":3.67e-6,"MEAN_MOTION_DDOT":0},{"OBJECT_NAME":"JILIN-1 03","OBJECT_ID":"2017-002B","EPOCH":"2026-03-03T18:42:02.750400","MEAN_MOTION":15.38761575,"ECCENTRICITY":0.0006095,"INCLINATION":97.1988,"RA_OF_ASC_NODE":71.5359,"ARG_OF_PERICENTER":172.1259,"MEAN_ANOMALY":188.0084,"EPHEMERIS_TYPE":0,"CLASSIFICATION_TYPE":"U","NORAD_CAT_ID":41914,"ELEMENT_SET_NO":999,"REV_AT_EPOCH":50563,"BSTAR":0.00048974,"MEAN_MOTION_DOT":0.00018718,"MEAN_MOTION_DDOT":0},{"OBJECT_NAME":"CARTOSAT-2D","OBJECT_ID":"2017-008A","EPOCH":"2026-03-03T20:14:06.802656","MEAN_MOTION":15.19309145,"ECCENTRICITY":0.0004494,"INCLINATION":97.4244,"RA_OF_ASC_NODE":124.0439,"ARG_OF_PERICENTER":240.4415,"MEAN_ANOMALY":119.6372,"EPHEMERIS_TYPE":0,"CLASSIFICATION_TYPE":"U","NORAD_CAT_ID":41948,"ELEMENT_SET_NO":999,"REV_AT_EPOCH":50158,"BSTAR":0.00020145,"MEAN_MOTION_DOT":4.186e-5,"MEAN_MOTION_DDOT":0},{"OBJECT_NAME":"CARTOSAT-2E","OBJECT_ID":"2017-036C","EPOCH":"2026-03-03T20:38:34.272096","MEAN_MOTION":15.19249338,"ECCENTRICITY":0.0002976,"INCLINATION":97.441,"RA_OF_ASC_NODE":124.327,"ARG_OF_PERICENTER":322.2923,"MEAN_ANOMALY":37.8103,"EPHEMERIS_TYPE":0,"CLASSIFICATION_TYPE":"U","NORAD_CAT_ID":42767,"ELEMENT_SET_NO":999,"REV_AT_EPOCH":48215,"BSTAR":0.00019181,"MEAN_MOTION_DOT":3.974e-5,"MEAN_MOTION_DDOT":0},{"OBJECT_NAME":"D-SAT","OBJECT_ID":"2017-036AF","EPOCH":"2026-03-03T12:17:20.606784","MEAN_MOTION":15.15401696,"ECCENTRICITY":0.0084714,"INCLINATION":97.547,"RA_OF_ASC_NODE":41.8882,"ARG_OF_PERICENTER":166.4366,"MEAN_ANOMALY":193.9172,"EPHEMERIS_TYPE":0,"CLASSIFICATION_TYPE":"U","NORAD_CAT_ID":42794,"ELEMENT_SET_NO":999,"REV_AT_EPOCH":47484,"BSTAR":0.00043028,"MEAN_MOTION_DOT":8.83e-5,"MEAN_MOTION_DDOT":0},{"OBJECT_NAME":"IRIDIUM 113","OBJECT_ID":"2017-039A","EPOCH":"2026-03-03T09:38:11.162976","MEAN_MOTION":14.34218147,"ECCENTRICITY":0.00022777,"INCLINATION":86.4019,"RA_OF_ASC_NODE":6.3751,"ARG_OF_PERICENTER":82.5993,"MEAN_ANOMALY":277.5461,"EPHEMERIS_TYPE":0,"CLASSIFICATION_TYPE":"U","NORAD_CAT_ID":42803,"ELEMENT_SET_NO":999,"REV_AT_EPOCH":45602,"BSTAR":1.9390921e-5,"MEAN_MOTION_DOT":7.4e-7,"MEAN_MOTION_DDOT":0},{"OBJECT_NAME":"NORSAT 2","OBJECT_ID":"2017-042D","EPOCH":"2026-03-03T10:09:18.935712","MEAN_MOTION":15.19481804,"ECCENTRICITY":0.00106802,"INCLINATION":97.396,"RA_OF_ASC_NODE":237.7506,"ARG_OF_PERICENTER":65.5521,"MEAN_ANOMALY":294.6827,"EPHEMERIS_TYPE":0,"CLASSIFICATION_TYPE":"U","NORAD_CAT_ID":42828,"ELEMENT_SET_NO":999,"REV_AT_EPOCH":47166,"BSTAR":0.00074704142,"MEAN_MOTION_DOT":0.00015828,"MEAN_MOTION_DDOT":0},{"OBJECT_NAME":"TECHNOSAT","OBJECT_ID":"2017-042E","EPOCH":"2026-03-03T12:11:24.330336","MEAN_MOTION":15.04219781,"ECCENTRICITY":0.0019632,"INCLINATION":97.4142,"RA_OF_ASC_NODE":224.3165,"ARG_OF_PERICENTER":95.0585,"MEAN_ANOMALY":265.2883,"EPHEMERIS_TYPE":0,"CLASSIFICATION_TYPE":"U","NORAD_CAT_ID":42829,"ELEMENT_SET_NO":999,"REV_AT_EPOCH":47081,"BSTAR":0.00039639,"MEAN_MOTION_DOT":5.474e-5,"MEAN_MOTION_DDOT":0},{"OBJECT_NAME":"FLYING LAPTOP","OBJECT_ID":"2017-042G","EPOCH":"2026-03-03T20:13:49.597824","MEAN_MOTION":15.00469402,"ECCENTRICITY":0.0018522,"INCLINATION":97.4249,"RA_OF_ASC_NODE":222.7783,"ARG_OF_PERICENTER":114.4983,"MEAN_ANOMALY":245.8175,"EPHEMERIS_TYPE":0,"CLASSIFICATION_TYPE":"U","NORAD_CAT_ID":42831,"ELEMENT_SET_NO":999,"REV_AT_EPOCH":47065,"BSTAR":0.00035328,"MEAN_MOTION_DOT":4.407e-5,"MEAN_MOTION_DDOT":0},{"OBJECT_NAME":"WNISAT 1R","OBJECT_ID":"2017-042L","EPOCH":"2026-03-03T15:54:13.867200","MEAN_MOTION":15.01088255,"ECCENTRICITY":0.0013084,"INCLINATION":97.4478,"RA_OF_ASC_NODE":222.7613,"ARG_OF_PERICENTER":151.2462,"MEAN_ANOMALY":208.9487,"EPHEMERIS_TYPE":0,"CLASSIFICATION_TYPE":"U","NORAD_CAT_ID":42835,"ELEMENT_SET_NO":999,"REV_AT_EPOCH":47067,"BSTAR":0.00041018,"MEAN_MOTION_DOT":5.201e-5,"MEAN_MOTION_DDOT":0},{"OBJECT_NAME":"LEMUR-2-GREENBERG","OBJECT_ID":"2017-042N","EPOCH":"2026-03-03T12:02:54.215232","MEAN_MOTION":15.27683252,"ECCENTRICITY":0.00095208,"INCLINATION":97.3762,"RA_OF_ASC_NODE":243.9025,"ARG_OF_PERICENTER":24.9743,"MEAN_ANOMALY":335.1955,"EPHEMERIS_TYPE":0,"CLASSIFICATION_TYPE":"U","NORAD_CAT_ID":42837,"ELEMENT_SET_NO":999,"REV_AT_EPOCH":47223,"BSTAR":0.00078816216,"MEAN_MOTION_DOT":0.00021315,"MEAN_MOTION_DDOT":0}]
