GAOFEN-3                
1 41727U 16049A   26062.83773709 -.00000012  00000+0  94177-5 0  9997
2 41727  98.4047  72.1974 0001619  95.3442 264.7932 14.42214068503462
PRATHAM                 
1 41783U 16059A   26062.53058046  .00001067  00000+0  19724-3 0  9990
2 41783  97.8314  64.0520 0030949 192.6488 167.3944 14.67025138504029
ALSAT-1N                
1 41789U 16059G   26062.82559920  .00001158  00000+0  20412-3 0  9992
2 41789  97.8030  70.8753 0026336 161.7752 198.4404 14.69099018504531
CAS-2T & KS-1Q          
1 41847U 16066G   26062.74981828  .00001890  00000+0  27184-3 0  9998
2 41847  98.3898 139.6652 0343777  89.4440 274.6126 14.44447987489576
YUNHAI-1 01             
1 41857U 16068A   26062.84982197  .00000377  00000+0  15504-3 0  9994
2 41857  98.5885  74.8134 0005223 358.4691   1.6476 14.32662381486744
RESOURCESAT-2A          
1 41877U 16074A   26062.84895668 -.00000039  00000+0  24513-5 0  9997
2 41877  98.7620 137.1823 0002764  48.2637 311.8776 14.21596911479333
TANSAT                  
1 41898U 16081A   26062.90588723  .00000367  00000+0  87053-4 0  9996
2 41898  98.5347  60.0671 0019316 275.3088  84.5907 14.59862936489266
JILIN-1 03              
1 41914U 17002B   26062.77919850  .00018718  00000+0  48974-3 0  9990
2 41914  97.1988  71.5359 0006095 172.1259 188.0084 15.38761575505636
CARTOSAT-2D             
1 41948U 17008A   26062.84313429  .00004186  00000+0  20145-3 0  9995
2 41948  97.4244 124.0439 0004494 240.4415 119.6372 15.19309145501588
CARTOSAT-2E             
1 42767U 17036C   26062.86011889  .00003974  00000+0  19181-3 0  9995
2 42767  97.4410 124.3270 0002976 322.2923  37.8103 15.19249338482156
D-SAT                   
1 42794U 17036AF  26062.51204406  .00008830  00000+0  43028-3 0  9999
2 42794  97.5470  41.8882 0084714 166.4366 193.9172 15.15401696474844
IRIDIUM 113             
1 42803U 17039A   26062.40151809  .00000074  00000+0  19391-4 0  9998
2 42803  86.4019   6.3751 0002277  82.5993 277.5461 14.34218147456027
NORSAT 2                
1 42828U 17042D   26062.42313583  .00015828  00000+0  74704-3 0  9991
2 42828  97.3960 237.7506 0010680  65.5521 294.6827 15.19481804471662
TECHNOSAT               
1 42829U 17042E   26062.50792049  .00005474  00000+0  39639-3 0  9993
2 42829  97.4142 224.3165 0019632  95.0585 265.2883 15.04219781470812
FLYING LAPTOP           
1 42831U 17042G   26062.84293516  .00004407  00000+0  35328-3 0  9994
2 42831  97.4249 222.7783 0018522 114.4983 245.8175 15.00469402470659
WNISAT 1R               
1 42835U 17042L   26062.66266050  .00005201  00000+0  41018-3 0  9997
2 42835  97.4478 222.7613 0013084 151.2462 208.9487 15.01088255470670
LEMUR-2-GREENBERG       
1 42837U 17042N   26062.50201638  .00021315  00000+0  78816-3 0  9993
2 42837  97.3762 243.9025 0009520  24.9743 335.1955 15.27683252472230
